NORAD_CAT_ID,OBJECT_NAME,OBJECT_TYPE,EPOCH,MEAN_MOTION,ECCENTRICITY,INCLINATION,RA_OF_ASC_NODE,ARG_OF_PERICENTER,MEAN_ANOMALY,BSTAR,MEAN_MOTION_DOT,MEAN_MOTION_DDOT,TLE_LINE0,TLE_LINE1,TLE_LINE2,SEMIMAJOR_AXIS,PERIOD,APOGEE,PERIGEE,DECAYED
49740.0,STARLINK-3226,PAYLOAD,2024-04-29 22:12:08,15.08848795,0.0001256,53.2183,316.1838,78.4186,281.6947,0.00025695,3.805e-05,0.0,0 STARLINK-3226,1 49740U 21115S   24120.92510265  .00003805  00000-0  25695-3 0  9999,2 49740  53.2183 316.1838 0001256  78.4186 281.6947 15.08848795133061,6917.854,95.437,540.587,538.85,0.0
49740.0,STARLINK-3226,PAYLOAD,2024-04-30 06:09:04,15.08848615,0.0001293,53.2183,314.6981,80.6145,279.4993,9.2486e-05,1.185e-05,0.0,0 STARLINK-3226,1 49740U 21115S   24121.25630337  .00001185  00000-0  92486-4 0  9991,2 49740  53.2183 314.6981 0001293  80.6145 279.4993 15.08848615133117,6917.854,95.437,540.614,538.825,0.0
49740.0,STARLINK-3226,PAYLOAD,2024-04-30 20:27:33,15.0884187,0.0001195,53.2179,312.0202,96.144,263.9689,5.0518e-05,5.16e-06,0.0,0 STARLINK-3226,1 49740U 21115S   24121.85246936  .00000516  00000-0  50518-4 0  9992,2 49740  53.2179 312.0202 0001195  96.1440 263.9689 15.08841870134310,6917.875,95.437,540.566,538.913,0.0
49740.0,STARLINK-3226,PAYLOAD,2024-05-01 12:21:25,15.08834018,9.49e-05,53.2174,309.0467,88.8638,271.2463,5.8237e-05,6.39e-06,0.0,0 STARLINK-3226,1 49740U 21115S   24122.51487347  .00000639  00000-0  58237-4 0  9991,2 49740  53.2174 309.0467 0000949  88.8638 271.2463 15.08834018134416,6917.899,95.438,540.42,539.107,0.0
49740.0,STARLINK-3226,PAYLOAD,2024-05-01 18:42:57,15.08843085,0.0001498,53.2172,307.8574,85.2512,274.8651,-2.4393e-05,-6.76e-06,0.0,0 STARLINK-3226,1 49740U 21115S   24122.77983070 -.00000676  00000-0 -24393-4 0  9992,2 49740  53.2172 307.8574 0001498  85.2512 274.8651 15.08843085133344,6917.871,95.437,540.772,538.7,0.0
49740.0,STARLINK-3226,PAYLOAD,2024-05-02 12:12:12,15.0883789,0.0001481,53.2187,304.5885,83.7011,276.415,2.637e-05,1.32e-06,0.0,0 STARLINK-3226,1 49740U 21115S   24123.50847245  .00000132  00000-0  26370-4 0  9999,2 49740  53.2187 304.5885 0001481  83.7011 276.4150 15.08837890133459,6917.887,95.438,540.776,538.727,0.0
49740.0,STARLINK-3226,PAYLOAD,2024-05-03 12:02:58,15.08836813,0.0001405,53.2175,300.1266,90.8161,269.2992,0.00025177,3.721e-05,0.0,0 STARLINK-3226,1 49740U 21115S   24124.50206712  .00003721  00000-0  25177-3 0  9998,2 49740  53.2175 300.1266 0001405  90.8161 269.2992 15.08836813134710,6917.89,95.438,540.727,538.783,0.0
49740.0,STARLINK-3226,PAYLOAD,2024-05-03 15:13:44,15.0883554,0.0001367,53.2175,299.532,91.4126,268.7023,0.00031669,4.755e-05,0.0,0 STARLINK-3226,1 49740U 21115S   24124.63454716  .00004755  00000-0  31669-3 0  9992,2 49740  53.2175 299.5320 0001367  91.4126 268.7023 15.08835540133621,6917.894,95.438,540.705,538.813,0.0
49740.0,STARLINK-3226,PAYLOAD,2024-05-03 18:24:30,15.0884176,0.0001385,53.2181,298.9375,90.3774,269.7377,0.00029411,4.396e-05,0.0,0 STARLINK-3226,1 49740U 21115S   24124.76702464  .00004396  00000-0  29411-3 0  9995,2 49740  53.2181 298.9375 0001385  90.3774 269.7377 15.08841760133644,6917.875,95.437,540.698,538.782,0.0
49740.0,STARLINK-3226,PAYLOAD,2024-05-04 11:53:46,15.08836229,0.0001311,53.2172,295.6671,87.8596,272.2546,4.8185e-05,4.79e-06,0.0,0 STARLINK-3226,1 49740U 21115S   24125.49567451  .00000479  00000-0  48185-4 0  9999,2 49740  53.2172 295.6671 0001311  87.8596 272.2546 15.08836229134865,6917.892,95.438,540.664,538.85,0.0
49740.0,STARLINK-3226,PAYLOAD,2024-05-05 14:55:19,15.08842307,0.0001204,53.2179,290.6119,99.3571,260.7557,2.9065e-05,1.75e-06,0.0,0 STARLINK-3226,1 49740U 21115S   24126.62175380  .00000175  00000-0  29065-4 0  9990,2 49740  53.2179 290.6119 0001204  99.3571 260.7557 15.08842307133920,6917.873,95.437,540.571,538.905,0.0
49740.0,STARLINK-3226,PAYLOAD,2024-05-05 18:06:05,15.08845405,0.0001211,53.2176,290.0164,93.363,266.7501,4.7836e-05,4.74e-06,0.0,0 STARLINK-3226,1 49740U 21115S   24126.75423175  .00000474  00000-0  47836-4 0  9990,2 49740  53.2176 290.0164 0001211  93.3630 266.7501 15.08845405135052,6917.864,95.437,540.567,538.891,0.0
49740.0,STARLINK-3226,PAYLOAD,2024-05-05 21:16:51,15.08848119,0.0001197,53.2175,289.4219,97.8603,262.2525,7.5612e-05,9.16e-06,0.0,0 STARLINK-3226,1 49740U 21115S   24126.88670900  .00000916  00000-0  75612-4 0  9998,2 49740  53.2175 289.4219 0001197  97.8603 262.2525 15.08848119133966,6917.856,95.437,540.549,538.893,0.0
49740.0,STARLINK-3226,PAYLOAD,2024-05-06 14:46:07,15.08832497,0.0001176,53.216,286.1486,93.2305,266.8822,0.00025398,3.756e-05,0.0,0 STARLINK-3226,1 49740U 21115S   24127.61535913  .00003756  00000-0  25398-3 0  9994,2 49740  53.2160 286.1486 0001176  93.2305 266.8822 15.08832497134071,6917.903,95.438,540.582,538.955,0.0
49740.0,STARLINK-3226,PAYLOAD,2024-05-06 19:32:15,15.08843495,0.0001205,53.2171,285.2558,85.0354,275.0776,0.0002133,3.109e-05,0.0,0 STARLINK-3226,1 49740U 21115S   24127.81407369  .00003109  00000-0  21330-3 0  9993,2 49740  53.2171 285.2558 0001205  85.0354 275.0776 15.08843495135216,6917.87,95.437,540.568,538.901,0.0
49740.0,STARLINK-3226,PAYLOAD,2024-05-07 14:36:54,15.08838541,0.0001424,53.2181,281.6893,71.1871,288.9275,9.6165e-05,1.243e-05,0.0,0 STARLINK-3226,1 49740U 21115S   24128.60895950  .00001243  00000-0  96165-4 0  9994,2 49740  53.2181 281.6893 0001424  71.1871 288.9275 15.08838541134225,6917.885,95.438,540.735,538.765,0.0
49740.0,STARLINK-3226,PAYLOAD,2024-05-07 19:23:02,15.08849117,0.0001411,53.2166,280.7966,113.9893,246.1247,6.3229e-05,7.19e-06,0.0,0 STARLINK-3226,1 49740U 21115S   24128.80767244  .00000719  00000-0  63229-4 0  9992,2 49740  53.2166 280.7966 0001411 113.9893 246.1247 15.08849117134253,6917.853,95.437,540.694,538.741,0.0
49740.0,STARLINK-3226,PAYLOAD,2024-05-08 03:19:58,15.08842806,0.0001176,53.2162,279.3085,112.3458,247.7659,0.00012734,1.74e-05,0.0,0 STARLINK-3226,1 49740U 21115S   24129.13887461  .00001740  00000-0  12734-3 0  9992,2 49740  53.2162 279.3085 0001176 112.3458 247.7659 15.08842806135414,6917.872,95.437,540.55,538.923,0.0
49740.0,STARLINK-3226,PAYLOAD,2024-05-08 14:27:40,15.08843638,0.0001091,53.216,277.2277,95.0981,265.0136,3.4649e-05,2.64e-06,0.0,0 STARLINK-3226,1 49740U 21115S   24129.60255461  .00000264  00000-0  34649-4 0  9993,2 49740  53.2160 277.2277 0001091  95.0981 265.0136 15.08843638134377,6917.869,95.437,540.489,538.98,0.0
49740.0,STARLINK-3226,PAYLOAD,2024-05-08 17:38:26,15.08845026,0.0001232,53.2172,276.6337,88.9509,271.1624,6.6782e-05,7.75e-06,0.0,0 STARLINK-3226,1 49740U 21115S   24129.73503459  .00000775  00000-0  66782-4 0  9990,2 49740  53.2172 276.6337 0001232  88.9509 271.1624 15.08845026134399,6917.865,95.437,540.582,538.878,0.0
49740.0,STARLINK-3226,PAYLOAD,2024-05-09 14:18:27,15.08843961,0.0001189,53.2168,272.7681,103.7653,256.3471,3.895e-05,3.32e-06,0.0,0 STARLINK-3226,1 49740U 21115S   24130.59615685  .00000332  00000-0  38950-4 0  9996,2 49740  53.2168 272.7681 0001189 103.7653 256.3471 15.08843961134526,6917.868,95.437,540.556,538.911,0.0
49740.0,STARLINK-3226,PAYLOAD,2024-05-09 15:53:50,15.0884844,0.000112,53.216,272.4721,94.0244,266.0876,0.00012135,1.644e-05,0.0,0 STARLINK-3226,1 49740U 21115S   24130.66239470  .00001644  00000-0  12135-3 0  9991,2 49740  53.2160 272.4721 0001120  94.0244 266.0876 15.08848440135641,6917.855,95.437,540.494,538.945,0.0
49740.0,STARLINK-3226,PAYLOAD,2024-05-10 12:33:52,15.08840866,0.0001487,53.2173,268.6054,103.9181,256.1976,0.00012081,1.635e-05,0.0,0 STARLINK-3226,1 49740U 21115S   24131.52352054  .00001635  00000-0  12081-3 0  9991,2 49740  53.2173 268.6054 0001487 103.9181 256.1976 15.08840866135776,6917.878,95.437,540.771,538.714,0.0
49740.0,STARLINK-3226,PAYLOAD,2024-05-10 14:09:15,15.08840828,0.0001464,53.2177,268.3078,106.5703,253.545,0.00011503,1.543e-05,0.0,0 STARLINK-3226,1 49740U 21115S   24131.58976032  .00001543  00000-0  11503-3 0  9991,2 49740  53.2177 268.3078 0001464 106.5703 253.5450 15.08840828134671,6917.878,95.438,540.756,538.73,0.0
49740.0,STARLINK-3226,PAYLOAD,2024-05-10 15:44:38,15.08842966,0.0001339,53.2189,268.0111,101.5909,258.5234,0.00015837,2.234e-05,0.0,0 STARLINK-3226,1 49740U 21115S   24131.65599916  .00002234  00000-0  15837-3 0  9993,2 49740  53.2189 268.0111 0001339 101.5909 258.5234 15.08842966134684,6917.871,95.437,540.663,538.81,0.0
49740.0,STARLINK-3226,PAYLOAD,2024-05-11 12:24:35,15.0889053,0.0001262,53.2175,264.1462,83.0462,277.0673,0.00058571,9.059e-05,0.0,0 STARLINK-3226,1 49740U 21115S   24132.51708314  .00009059  00000-0  58571-3 0  9997,2 49740  53.2175 264.1462 0001262  83.0462 277.0673 15.08890530135929,6917.726,95.434,540.464,538.718,0.0
49740.0,STARLINK-3226,PAYLOAD,2024-05-11 15:35:21,15.08899771,0.0002174,53.2178,263.5512,110.8062,249.3163,0.00066276,0.00010293,0.0,0 STARLINK-3226,1 49740U 21115S   24132.64955000  .00010293  00000-0  66276-3 0  9990,2 49740  53.2178 263.5512 0002174 110.8062 249.3163 15.08899771135943,6917.698,95.434,541.067,538.059,0.0
49740.0,STARLINK-3226,PAYLOAD,2024-05-12 01:07:45,15.08752374,0.0001634,53.2174,261.7681,94.3771,265.7407,-0.0021557,-0.00034351,0.0,0 STARLINK-3226,1 49740U 21115S   24133.04705785 -.00034351  00000-0 -21557-2 0  9993,2 49740  53.2174 261.7681 0001634  94.3771 265.7407 15.08752374136007,6918.148,95.443,541.144,538.883,0.0
49740.0,STARLINK-3226,PAYLOAD,2024-05-12 13:50:56,15.08670227,0.0001701,53.2182,259.3896,105.9772,254.1408,-0.0028199,-0.00044682,0.0,0 STARLINK-3226,1 49740U 21115S   24133.57704467 -.00044682  00000-0 -28199-2 0  9994,2 49740  53.2182 259.3896 0001701 105.9772 254.1408 15.08670227136089,6918.399,95.448,541.441,539.088,0.0
49740.0,STARLINK-3226,PAYLOAD,2024-05-12 15:26:20,15.0866856,0.0001643,53.2175,259.0938,115.5094,244.6069,-0.0026906,-0.00042656,0.0,0 STARLINK-3226,1 49740U 21115S   24133.64329110 -.00042656  00000-0 -26906-2 0  9993,2 49740  53.2175 259.0938 0001643 115.5094 244.6069 15.08668560134985,6918.404,95.448,541.406,539.133,0.0
